NORAD_CAT_ID,OBJECT_NAME,OBJECT_TYPE,EPOCH,MEAN_MOTION,ECCENTRICITY,INCLINATION,RA_OF_ASC_NODE,ARG_OF_PERICENTER,MEAN_ANOMALY,BSTAR,MEAN_MOTION_DOT,MEAN_MOTION_DDOT,TLE_LINE0,TLE_LINE1,TLE_LINE2,SEMIMAJOR_AXIS,PERIOD,APOGEE,PERIGEE,DECAYED
52120.0,STARLINK-3534,PAYLOAD,2023-10-16 13:34:26,15.08847148,0.0001458,53.2192,47.707,89.3824,270.7336,0.00065757,0.00010195,0.0,0 STARLINK-3534,1 52120U 22029AJ  23289.56558211  .00010195  00000-0  65757-3 0  9991,2 52120  53.2192  47.7070 0001458  89.3824 270.7336 15.08847148 88685,6917.859,95.437,540.732,538.715,0.0
52120.0,STARLINK-3534,PAYLOAD,2023-10-17 11:49:50,15.08842009,0.000145,53.2195,43.5449,91.2852,268.8306,0.00014942,2.091e-05,0.0,0 STARLINK-3534,1 52120U 22029AJ  23290.49294223  .00002091  00000-0  14942-3 0  9991,2 52120  53.2195  43.5449 0001450  91.2852 268.8306 15.08842009 88829,6917.874,95.437,540.742,538.736,0.0
52120.0,STARLINK-3534,PAYLOAD,2023-10-18 00:32:55,15.08843693,0.0001471,53.2199,41.1656,88.3913,271.7247,0.00017079,2.431e-05,0.0,0 STARLINK-3534,1 52120U 22029AJ  23291.02286220  .00002431  00000-0  17079-3 0  9991,2 52120  53.2199  41.1656 0001471  88.3913 271.7247 15.08843693 88901,6917.869,95.437,540.752,538.716,0.0
52120.0,STARLINK-3534,PAYLOAD,2023-10-18 11:40:37,15.08839761,0.0001598,53.2202,39.0834,87.5609,272.5566,0.00012246,1.661e-05,0.0,0 STARLINK-3534,1 52120U 22029AJ  23291.48654472  .00001661  00000-0  12246-3 0  9994,2 52120  53.2202  39.0834 0001598  87.5609 272.5566 15.08839761 88974,6917.881,95.438,540.852,538.641,0.0
52120.0,STARLINK-3534,PAYLOAD,2023-10-19 11:31:23,15.08854436,0.0001888,53.219,34.6244,88.1622,271.9587,0.0003496,5.282e-05,0.0,0 STARLINK-3534,1 52120U 22029AJ  23292.48013781  .00005282  00000-0  34960-3 0  9997,2 52120  53.2190  34.6244 0001888  88.1622 271.9587 15.08854436 89120,6917.836,95.437,541.007,538.395,0.0
52120.0,STARLINK-3534,PAYLOAD,2023-10-20 00:14:28,15.08853507,0.0001744,53.2156,32.2467,70.8367,289.2813,0.00013135,1.804e-05,0.0,0 STARLINK-3534,1 52120U 22029AJ  23293.01005657  .00001804  00000-0  13135-3 0  9997,2 52120  53.2156  32.2467 0001744  70.8367 289.2813 15.08853507 89209,6917.839,95.437,540.911,538.498,0.0
52120.0,STARLINK-3534,PAYLOAD,2023-10-20 11:22:11,15.08830633,0.0001384,53.2174,30.1635,79.1982,280.9166,-0.00012585,-2.29e-05,0.0,0 STARLINK-3534,1 52120U 22029AJ  23293.47374497 -.00002290  00000-0 -12585-3 0  9998,2 52120  53.2174  30.1635 0001384  79.1982 280.9166 15.08830633 89279,6917.909,95.438,540.731,538.817,0.0
52120.0,STARLINK-3534,PAYLOAD,2023-10-21 12:48:21,15.08850037,0.0001213,53.2175,25.4043,79.2449,280.868,0.00085584,0.00013363,0.0,0 STARLINK-3534,1 52120U 22029AJ  23294.53358510  .00013363  00000-0  85584-3 0  9994,2 52120  53.2175  25.4043 0001213  79.2449 280.8680 15.08850037 89438,6917.85,95.437,540.554,538.876,0.0
52120.0,STARLINK-3534,PAYLOAD,2023-10-22 12:39:08,15.08868214,0.0001346,53.218,20.9435,87.6776,272.437,0.00099076,0.00015527,0.0,0 STARLINK-3534,1 52120U 22029AJ  23295.52717726  .00015527  00000-0  99076-3 0  9997,2 52120  53.2180  20.9435 0001346  87.6776 272.4370 15.08868214 89587,6917.794,95.436,540.59,538.728,0.0
52120.0,STARLINK-3534,PAYLOAD,2023-10-23 12:29:56,15.08835176,0.0001394,53.2189,16.4818,76.7539,283.3608,0.0002163,3.156e-05,0.0,0 STARLINK-3534,1 52120U 22029AJ  23296.52078711  .00003156  00000-0  21630-3 0  9998,2 52120  53.2189  16.4818 0001394  76.7539 283.3608 15.08835176 89733,6917.895,95.438,540.724,538.796,0.0
52120.0,STARLINK-3534,PAYLOAD,2023-10-24 13:56:06,15.08843552,0.0001391,53.2185,11.7253,85.4594,274.6557,0.00013577,1.874e-05,0.0,0 STARLINK-3534,1 52120U 22029AJ  23297.58062694  .00001874  00000-0  13577-3 0  9994,2 52120  53.2185  11.7253 0001391  85.4594 274.6557 15.08843552 89895,6917.87,95.437,540.697,538.772,0.0
52120.0,STARLINK-3534,PAYLOAD,2023-10-25 12:11:30,15.08843633,0.0001427,53.2183,7.5638,80.5404,279.5749,0.00026459,3.926e-05,0.0,0 STARLINK-3534,1 52120U 22029AJ  23298.50799148  .00003926  00000-0  26459-3 0  9991,2 52120  53.2183   7.5638 0001427  80.5404 279.5749 15.08843633 90034,6917.869,95.437,540.721,538.747,0.0
52120.0,STARLINK-3534,PAYLOAD,2023-10-25 21:43:49,15.08842903,0.0001411,53.2183,5.7797,82.3479,277.7674,0.00020566,2.987e-05,0.0,0 STARLINK-3534,1 52120U 22029AJ  23298.90543213  .00002987  00000-0  20566-3 0  9994,2 52120  53.2183   5.7797 0001411  82.3479 277.7674 15.08842903 90097,6917.872,95.437,540.713,538.76,0.0
52120.0,STARLINK-3534,PAYLOAD,2023-10-26 04:05:22,15.08835499,0.0001576,53.218,4.5913,85.4569,274.6604,0.00044688,6.83e-05,0.0,0 STARLINK-3534,1 52120U 22029AJ  23299.17039582  .00006830  00000-0  44688-3 0  9995,2 52120  53.2180   4.5913 0001576  85.4569 274.6604 15.08835499 90133,6917.894,95.438,540.849,538.669,0.0
52120.0,STARLINK-3534,PAYLOAD,2023-10-26 12:02:18,15.08833915,0.0001688,53.2182,3.1044,85.7704,274.3481,0.00064824,0.00010042,0.0,0 STARLINK-3534,1 52120U 22029AJ  23299.50159876  .00010042  00000-0  64824-3 0  9995,2 52120  53.2182   3.1044 0001688  85.7704 274.3481 15.08833915 90189,6917.899,95.438,540.932,538.596,0.0
52120.0,STARLINK-3534,PAYLOAD,2023-10-27 10:17:40,15.08857393,0.0001458,53.2168,358.9398,91.9658,268.1501,0.00032149,4.835e-05,0.0,0 STARLINK-3534,1 52120U 22029AJ  23300.42894291  .00004835  00000-0  32149-3 0  9994,2 52120  53.2168 358.9398 0001458  91.9658 268.1501 15.08857393 90324,6917.827,95.436,540.701,538.684,0.0
52120.0,STARLINK-3534,PAYLOAD,2023-10-27 13:28:26,15.08863033,0.0001545,53.2172,358.345,92.6916,267.4253,0.00041801,6.375e-05,0.0,0 STARLINK-3534,1 52120U 22029AJ  23300.56141977  .00006375  00000-0  41801-3 0  9991,2 52120  53.2172 358.3450 0001545  92.6916 267.4253 15.08863033 90340,6917.81,95.436,540.744,538.606,0.0
52120.0,STARLINK-3534,PAYLOAD,2023-10-27 21:25:23,15.08837852,0.0002128,53.2175,356.8598,76.258,283.8649,-5.4023e-05,-1.148e-05,0.0,0 STARLINK-3534,1 52120U 22029AJ  23300.89263083 -.00001148  00000-0 -54023-4 0  9996,2 52120  53.2175 356.8598 0002128  76.2580 283.8649 15.08837852 90398,6917.887,95.438,541.224,538.28,0.0
52120.0,STARLINK-3534,PAYLOAD,2023-10-28 10:08:28,15.08829586,0.0001744,53.2175,354.4808,82.4944,277.6247,-0.00016511,-2.914e-05,0.0,0 STARLINK-3534,1 52120U 22029AJ  23301.42255441 -.00002914  00000-0 -16511-3 0  9996,2 52120  53.2175 354.4808 0001744  82.4944 277.6247 15.08829586 90471,6917.912,95.438,540.984,538.571,0.0
52120.0,STARLINK-3534,PAYLOAD,2023-10-28 21:16:10,15.08839858,0.0001764,53.2188,352.397,91.2142,268.9053,0.00012927,1.77e-05,0.0,0 STARLINK-3534,1 52120U 22029AJ  23301.88623388  .00001770  00000-0  12927-3 0  9999,2 52120  53.2188 352.3970 0001764  91.2142 268.9053 15.08839858 90541,6917.881,95.438,540.966,538.526,0.0
52120.0,STARLINK-3534,PAYLOAD,2023-10-29 09:59:15,15.08862866,0.0001782,53.218,350.0197,81.2461,278.8733,0.0010501,0.00016474,0.0,0 STARLINK-3534,1 52120U 22029AJ  23302.41614967  .00016474  00000-0  10501-2 0  9994,2 52120  53.2180 350.0197 0001782  81.2461 278.8733 15.08862866 90621,6917.81,95.436,540.908,538.443,0.0
52120.0,STARLINK-3534,PAYLOAD,2023-10-30 03:28:29,15.08851336,0.0001425,53.2173,346.748,89.2094,270.9062,0.0005052,7.764e-05,0.0,0 STARLINK-3534,1 52120U 22029AJ  23303.14479128  .00007764  00000-0  50520-3 0  9991,2 52120  53.2173 346.7480 0001425  89.2094 270.9062 15.08851336 90734,6917.846,95.437,540.697,538.725,0.0
52120.0,STARLINK-3534,PAYLOAD,2023-10-30 09:50:02,15.08830054,0.0001661,53.2175,345.56,89.8231,270.2951,0.0012662,0.00019916,0.0,0 STARLINK-3534,1 52120U 22029AJ  23303.40975503  .00019916  00000-0  12662-2 0  9994,2 52120  53.2175 345.5600 0001661  89.8231 270.2951 15.08830054 90776,6917.911,95.438,540.925,538.627,0.0
52120.0,STARLINK-3534,PAYLOAD,2023-10-30 19:22:22,15.08830482,0.0001663,53.217,343.7753,89.5255,270.5927,0.0008193,0.00012772,0.0,0 STARLINK-3534,1 52120U 22029AJ  23303.80719974  .00012772  00000-0  81930-3 0  9994,2 52120  53.2170 343.7753 0001663  89.5255 270.5927 15.08830482 90833,6917.909,95.438,540.925,538.624,0.0
52120.0,STARLINK-3534,PAYLOAD,2023-10-31 09:40:50,15.08836674,0.0001694,53.2171,341.0992,92.5107,267.6079,0.00042225,6.438e-05,0.0,0 STARLINK-3534,1 52120U 22029AJ  23304.40336183  .00006438  00000-0  42225-3 0  9994,2 52120  53.2171 341.0992 0001694  92.5107 267.6079 15.08836674 90928,6917.891,95.438,540.927,538.584,0.0
52120.0,STARLINK-3534,PAYLOAD,2023-10-31 19:13:09,15.08840332,0.0001673,53.2172,339.3152,92.4692,267.6492,0.00039631,6.025e-05,0.0,0 STARLINK-3534,1 52120U 22029AJ  23304.80080224  .00006025  00000-0  39631-3 0  9999,2 52120  53.2172 339.3152 0001673  92.4692 267.6492 15.08840332 90983,6917.879,95.438,540.902,538.587,0.0
52120.0,STARLINK-3534,PAYLOAD,2023-11-01 11:07:00,15.08846289,0.0001725,53.2173,336.3417,94.1166,266.0023,0.00036186,5.477e-05,0.0,0 STARLINK-3534,1 52120U 22029AJ  23305.46320117  .00005477  00000-0  36186-3 0  9992,2 52120  53.2173 336.3417 0001725  94.1166 266.0023 15.08846289 91080,6917.861,95.437,540.919,538.533,0.0
52120.0,STARLINK-3534,PAYLOAD,2023-11-01 19:03:56,15.08845954,0.0001686,53.217,334.8545,89.0877,271.0308,0.00028182,4.201e-05,0.0,0 STARLINK-3534,1 52120U 22029AJ  23305.79440060  .00004201  00000-0  28182-3 0  9999,2 52120  53.2170 334.8545 0001686  89.0877 271.0308 15.08845954 91136,6917.862,95.437,540.894,538.561,0.0
52120.0,STARLINK-3534,PAYLOAD,2023-11-02 01:25:28,15.08844839,0.0001836,53.2167,333.6654,90.3664,269.7538,0.00019549,2.825e-05,0.0,0 STARLINK-3534,1 52120U 22029AJ  23306.05936070  .00002825  00000-0  19549-3 0  9997,2 52120  53.2167 333.6654 0001836  90.3664 269.7538 15.08844839 91170,6917.866,95.437,541.001,538.46,0.0
52120.0,STARLINK-3534,PAYLOAD,2023-11-02 12:33:10,15.0885106,0.0001733,53.2164,331.5823,86.1019,274.0171,0.00025211,3.728e-05,0.0,0 STARLINK-3534,1 52120U 22029AJ  23306.52303710  .00003728  00000-0  25211-3 0  9994,2 52120  53.2164 331.5823 0001733  86.1019 274.0171 15.08851060 91249,6917.847,95.437,540.91,538.513,0.0
